OBJECT_NAME,OBJECT_ID,EPOCH,MEAN_MOTION,ECCENTRICITY,INCLINATION,RA_OF_ASC_NODE,ARG_OF_PERICENTER,MEAN_ANOMALY,EPHEMERIS_TYPE,CLASSIFICATION_TYPE,NORAD_CAT_ID,ELEMENT_SET_NO,REV_AT_EPOCH,BSTAR,MEAN_MOTION_DOT,MEAN_MOTION_DDOT
CALSPHERE 1,1964-063C,2026-07-19T03:50:02.107968,13.76653908,.00244055,90.2207,72.5195,191.3596,289.5963,0,U,900,999,7582,.3600998E-3,.363E-5,0
CALSPHERE 2,1964-063E,2026-07-19T03:36:51.297408,13.52902493,.00200344,90.2339,76.5582,130.4177,33.3531,0,U,902,999,86058,.7993185E-5,.14E-6,0
LCS 1,1965-034C,2026-07-19T01:56:09.378240,9.89310676,.00123715,32.1411,101.2925,235.7558,124.1767,0,U,1361,999,21304,.12488091E-2,.18E-6,0
TEMPSAT 1,1965-065E,2026-07-19T07:32:41.638848,13.33595631,.00704676,89.9978,212.5949,156.9278,214.9876,0,U,1512,999,96433,.6939979E-5,.13E-6,0
CALSPHERE 4A,1965-065H,2026-07-19T00:54:09.148032,13.36283658,.00709005,89.8987,122.1748,15.3559,356.2900,0,U,1520,999,96696,.14106101E-3,.83E-6,0
OPS 5712 (P/L 160),1967-053A,2026-07-19T06:21:11.258496,14.78103185,.00023934,69.9178,319.6458,301.0136,59.0777,0,U,2826,999,7097,.46416439E-3,.3286E-4,0
LES-5,1967-066E,2026-07-19T06:15:30.949632,1.09425253,.00513759,2.6955,95.4197,214.3824,64.1101,0,U,2866,999,13138,0,-.59E-6,0
SURCAL 159,1967-053F,2026-07-19T05:55:34.842720,13.99609298,.00043801,69.9749,291.7925,63.6770,296.4787,0,U,2872,999,1469,.55932963E-4,.28E-6,0
OPS 5712 (P/L 153),1967-053H,2026-07-18T23:44:45.245184,13.96832620,.00066274,69.9735,47.1406,175.2269,184.8901,0,U,2874,999,1123,.33528482E-4,-.7E-7,0
RIGIDSPHERE 2 (LCS 4),1971-067E,2026-07-19T06:33:54.901440,14.37905041,.00618735,87.6242,329.8990,125.3112,235.3895,0,U,5398,999,87849,.12292765E-3,.398E-5,0
OSCAR 7 (AO-7),1974-089B,2026-07-19T07:03:13.239936,12.53698642,.00126398,101.9907,213.8752,70.7839,316.5159,0,U,7530,999,36454,-.6591926E-5,-.47E-6,0
STARLETTE,1975-010A,2026-07-19T06:16:20.265024,13.82350772,.02056954,49.8268,337.9893,169.0288,191.5190,0,U,7646,999,59897,-.2839974E-5,-.146E-5,0
LAGEOS 1,1976-039A,2026-07-19T07:46:49.774944,6.38664712,.0044659,109.8050,190.3315,295.3674,45.1449,0,U,8820,999,91518,0,.7E-7,0
PHASE 3B (AO-10),1983-058B,2026-07-17T23:01:24.898944,2.05871393,.60006144,25.9392,214.4954,124.1231,307.7423,0,U,14129,999,29612,0,-.201E-5,0
UOSAT 2 (UO-11),1984-021B,2026-07-18T21:37:53.079456,14.90853808,.00092349,97.8079,165.1270,81.1376,279.0887,0,U,14781,999,26185,.6589185E-4,.593E-5,0
AJISAI (EGS),1986-061A,2026-07-19T07:37:51.000096,12.44516671,.00110795,50.0104,48.5941,262.4419,74.7798,0,U,16908,999,48438,-.39354161E-4,-.103E-5,0
TDRS 3,1988-091B,2026-07-19T06:06:01.858752,1.00279809,.00380553,12.5780,340.7897,355.1957,3.4957,0,U,19548,999,12570,0,-.307E-5,0
COSMOS 1989 (ETALON 1),1989-001C,2026-07-19T06:37:39.678816,2.13156038,.00233291,64.9643,71.0983,217.4653,251.2283,0,U,19751,999,29205,0,-.43E-6,0
COSMOS 2024 (ETALON 2),1989-039C,2026-07-18T10:10:25.418784,2.13204581,.00207751,64.9136,309.4596,212.3038,125.4600,0,U,20026,999,28916,0,-.7E-6,0
FLTSATCOM 8 (USA 46),1989-077A,2026-07-18T18:05:32.404992,1.00281658,.00024288,12.4121,350.9689,99.7843,242.7305,0,U,20253,999,26087,0,-.377E-5,0
LUSAT (LO-19),1990-005G,2026-07-18T23:54:49.010976,14.34131374,.00126211,98.8846,222.6774,111.2051,249.0482,0,U,20442,999,90695,.24885951E-4,.23E-6,0
HST,1990-037B,2026-07-19T05:10:38.563104,15.31084186,.00021419,28.4722,221.6112,143.1393,216.9350,0,U,20580,999,79348,.90734233E-4,.3033E-4,0
SKYNET 4C,1990-079A,2026-07-17T03:51:28.794816,0.98579636,.0002817,13.3285,349.6256,132.9144,49.3779,0,U,20776,999,33,0,-.215E-5,0
TDRS 5,1991-054B,2026-07-19T03:49:26.354784,1.00275725,.00072811,14.0670,353.5411,257.3954,295.7068,0,U,21639,999,12803,0,.74E-6,0
LAGEOS 2,1992-070B,2026-07-03T12:24:12.574080,6.47293801,.013793,52.6512,256.3450,194.4924,154.2737,0,U,22195,999,79647,0,-.9E-7,0
TDRS 6,1993-003B,2026-07-18T21:01:56.097408,1.00278404,.00086126,14.1833,356.8186,185.3161,24.0928,0,U,22314,999,12272,0,-.306E-5,0
SCD 1,1993-009B,2026-07-19T04:54:19.804032,14.46129525,.00420514,24.9707,9.8871,116.7391,43.8082,0,U,22490,999,76575,.29380233E-4,.293E-5,0
UFO 2 (USA 95),1993-056A,2026-07-19T03:02:53.320128,1.00272313,.00021623,11.9060,3.3728,4.5645,3.3100,0,U,22787,999,11887,0,.115E-5,0
STELLA,1993-061B,2026-07-19T07:05:48.754752,14.27471336,.00071158,98.7708,264.6606,136.5990,289.0455,0,U,22824,999,70935,.6909664E-5,-.28E-6,0
EYESAT A (AO-27),1993-061C,2026-07-19T03:57:13.631904,14.30949715,.00085393,98.6864,267.5640,14.7402,345.4028,0,U,22825,999,71157,.27887679E-4,.29E-6,0
ITAMSAT (IO-26),1993-061D,2026-07-19T03:13:50.092320,14.31377398,.00087134,98.6813,267.4547,357.6631,2.4509,0,U,22826,999,71188,.26963835E-4,.27E-6,0
