CALSPHERE 1             
1 00900U 64063C   26200.15974662  .00000363  00000+0  36010-3 0  9992
2 00900  90.2207  72.5195 0024405 191.3596 289.5963 13.76653908 75821
CALSPHERE 2             
1 00902U 64063E   26200.15059372  .00000014  00000+0  79932-5 0  9991
2 00902  90.2339  76.5582 0020034 130.4177  33.3531 13.52902493860587
LCS 1                   
1 01361U 65034C   26200.08066410  .00000018  00000+0  12488-2 0  9997
2 01361  32.1411 101.2925 0012371 235.7558 124.1767  9.89310676213041
TEMPSAT 1               
1 01512U 65065E   26200.31437082  .00000013  00000+0  69400-5 0  9996
2 01512  89.9978 212.5949 0070467 156.9278 214.9876 13.33595631964336
CALSPHERE 4A            
1 01520U 65065H   26200.03760588  .00000083  00000+0  14106-3 0  9992
2 01520  89.8987 122.1748 0070900  15.3559 356.2900 13.36283658966964
OPS 5712 (P/L 160)      
1 02826U 67053A   26200.26471364  .00003286  00000+0  46416-3 0  9994
2 02826  69.9178 319.6458 0002393 301.0136  59.0777 14.78103185 70973
LES-5                   
1 02866U 67066E   26200.26077488 -.00000059  00000+0  00000+0 0  9992
2 02866   2.6955  95.4197 0051375 214.3824  64.1101  1.09425253131381
SURCAL 159              
1 02872U 67053F   26200.24693105  .00000028  00000+0  55933-4 0  9998
2 02872  69.9749 291.7925 0004380  63.6770 296.4787 13.99609298 14693
OPS 5712 (P/L 153)      
1 02874U 67053H   26199.98941256 -.00000007  00000+0  33528-4 0  9995
2 02874  69.9735  47.1406 0006627 175.2269 184.8901 13.96832620 11235
RIGIDSPHERE 2 (LCS 4)   
1 05398U 71067E   26200.27355210  .00000398  00000+0  12293-3 0  9990
2 05398  87.6242 329.8990 0061873 125.3112 235.3895 14.37905041878491
OSCAR 7 (AO-7)          
1 07530U 74089B   26200.29390324 -.00000047  00000+0 -65919-5 0  9992
2 07530 101.9907 213.8752 0012639  70.7839 316.5159 12.53698642364545
STARLETTE               
1 07646U 75010A   26200.26134566 -.00000146  00000+0 -28400-5 0  9990
2 07646  49.8268 337.9893 0205695 169.0288 191.5190 13.82350772598977
LAGEOS 1                
1 08820U 76039A   26200.32418721  .00000007  00000+0  00000+0 0  9996
2 08820 109.8050 190.3315 0044659 295.3674  45.1449  6.38664712915183
PHASE 3B (AO-10)        
1 14129U 83058B   26198.95931596 -.00000201  00000+0  00000+0 0  9996
2 14129  25.9392 214.4954 6000614 124.1231 307.7423  2.05871393296123
UOSAT 2 (UO-11)         
1 14781U 84021B   26199.90130879  .00000593  00000+0  65892-4 0  9990
2 14781  97.8079 165.1270 0009234  81.1376 279.0887 14.90853808261858
AJISAI (EGS)            
1 16908U 86061A   26200.31795139 -.00000103  00000+0 -39354-4 0  9996
2 16908  50.0104  48.5941 0011079 262.4419  74.7798 12.44516671484389
TDRS 3                  
1 19548U 88091B   26200.25418818 -.00000307  00000+0  00000+0 0  9999
2 19548  12.5780 340.7897 0038055 355.1957   3.4957  1.00279809125705
COSMOS 1989 (ETALON 1)  
1 19751U 89001C   26200.27615369 -.00000043  00000+0  00000+0 0  9996
2 19751  64.9643  71.0983 0023329 217.4653 251.2283  2.13156038292052
COSMOS 2024 (ETALON 2)  
1 20026U 89039C   26199.42390531 -.00000070  00000+0  00000+0 0  9999
2 20026  64.9136 309.4596 0020775 212.3038 125.4600  2.13204581289167
FLTSATCOM 8 (USA 46)    
1 20253U 89077A   26199.75384728 -.00000377  00000+0  00000+0 0  9990
2 20253  12.4121 350.9689 0002428  99.7843 242.7305  1.00281658260878
LUSAT (LO-19)           
1 20442U 90005G   26199.99640059  .00000023  00000+0  24886-4 0  9991
2 20442  98.8846 222.6774 0012621 111.2051 249.0482 14.34131374906959
HST                     
1 20580U 90037B   26200.21572411  .00003033  00000+0  90734-4 0  9992
2 20580  28.4722 221.6112 0002141 143.1393 216.9350 15.31084186793483
SKYNET 4C               
1 20776U 90079A   26198.16074994 -.00000215  00000+0  00000+0 0  9990
2 20776  13.3285 349.6256 0002817 132.9144  49.3779  0.98579636   331
TDRS 5                  
1 21639U 91054B   26200.15933281  .00000074  00000+0  00000+0 0  9991
2 21639  14.0670 353.5411 0007281 257.3954 295.7068  1.00275725128036
LAGEOS 2                
1 22195U 92070B   26184.51681220 -.00000009  00000+0  00000+0 0  9991
2 22195  52.6512 256.3450 0137930 194.4924 154.2737  6.47293801796475
TDRS 6                  
1 22314U 93003B   26199.87634372 -.00000306  00000+0  00000+0 0  9992
2 22314  14.1833 356.8186 0008612 185.3161  24.0928  1.00278404122728
SCD 1                   
1 22490U 93009B   26200.20439588  .00000293  00000+0  29380-4 0  9996
2 22490  24.9707   9.8871 0042051 116.7391  43.8082 14.46129525765755
UFO 2 (USA 95)          
1 22787U 93056A   26200.12700602  .00000115  00000+0  00000+0 0  9992
2 22787  11.9060   3.3728 0002162   4.5645   3.3100  1.00272313118874
STELLA                  
1 22824U 93061B   26200.29570318 -.00000028  00000+0  69097-5 0  9998
2 22824  98.7708 264.6606 0007115 136.5990 289.0455 14.27471336709351
EYESAT A (AO-27)        
1 22825U 93061C   26200.16474111  .00000029  00000+0  27888-4 0  9990
2 22825  98.6864 267.5640 0008539  14.7402 345.4028 14.30949715711575
ITAMSAT (IO-26)         
1 22826U 93061D   26200.13460755  .00000027  00000+0  26964-4 0  9999
2 22826  98.6813 267.4547 0008713 357.6631   2.4509 14.31377398711883
